<?xml version="1.0" encoding="UTF-8"?>
<ndm xmlns:xsi="http://www.w3.org/2001/XMLSchema-instance" xsi:noNamespaceSchemaLocation="https://sanaregistry.org/r/ndmxml_unqualified/ndmxml-2.0.0-master-2.0.xsd">
<omm id="CCSDS_OMM_VERS" version="2.0">
<header><CREATION_DATE/><ORIGINATOR/></header><body><segment><metadata><OBJECT_NAME>ORBCOMM FM05</OBJECT_NAME><OBJECT_ID>1997-084F</OBJECT_ID><CENTER_NAME>EARTH</CENTER_NAME><REF_FRAME>TEME</REF_FRAME><TIME_SYSTEM>UTC</TIME_SYSTEM><MEAN_ELEMENT_THEORY>SGP4</MEAN_ELEMENT_THEORY></metadata><data><meanElements><EPOCH>2025-11-21T00:38:19.238784</EPOCH><MEAN_MOTION>14.46592723</MEAN_MOTION><ECCENTRICITY>.0004537</ECCENTRICITY><INCLINATION>45.0153</INCLINATION><RA_OF_ASC_NODE>334.6933</RA_OF_ASC_NODE><ARG_OF_PERICENTER>283.1926</ARG_OF_PERICENTER><MEAN_ANOMALY>76.8419</MEAN_ANOMALY></meanElements><tleParameters><EPHEMERIS_TYPE>0</EPHEMERIS_TYPE><CLASSIFICATION_TYPE>U</CLASSIFICATION_TYPE><NORAD_CAT_ID>25117</NORAD_CAT_ID><ELEMENT_SET_NO>999</ELEMENT_SET_NO><REV_AT_EPOCH>46331</REV_AT_EPOCH><BSTAR>.47201E-3</BSTAR><MEAN_MOTION_DOT>.1574E-4</MEAN_MOTION_DOT><MEAN_MOTION_DDOT>0</MEAN_MOTION_DDOT></tleParameters></data></segment></body></omm>
<omm id="CCSDS_OMM_VERS" version="2.0">
<header><CREATION_DATE/><ORIGINATOR/></header><body><segment><metadata><OBJECT_NAME>ORBCOMM FM06</OBJECT_NAME><OBJECT_ID>1997-084G</OBJECT_ID><CENTER_NAME>EARTH</CENTER_NAME><REF_FRAME>TEME</REF_FRAME><TIME_SYSTEM>UTC</TIME_SYSTEM><MEAN_ELEMENT_THEORY>SGP4</MEAN_ELEMENT_THEORY></metadata><data><meanElements><EPOCH>2025-11-20T09:50:50.357184</EPOCH><MEAN_MOTION>14.46744664</MEAN_MOTION><ECCENTRICITY>.00034843</ECCENTRICITY><INCLINATION>45.0144</INCLINATION><RA_OF_ASC_NODE>337.2088</RA_OF_ASC_NODE><ARG_OF_PERICENTER>279.5255</ARG_OF_PERICENTER><MEAN_ANOMALY>231.2126</MEAN_ANOMALY></meanElements><tleParameters><EPHEMERIS_TYPE>0</EPHEMERIS_TYPE><CLASSIFICATION_TYPE>U</CLASSIFICATION_TYPE><NORAD_CAT_ID>25118</NORAD_CAT_ID><ELEMENT_SET_NO>999</ELEMENT_SET_NO><REV_AT_EPOCH>46414</REV_AT_EPOCH><BSTAR>.55164828E-3</BSTAR><MEAN_MOTION_DOT>.187E-4</MEAN_MOTION_DOT><MEAN_MOTION_DDOT>0</MEAN_MOTION_DDOT></tleParameters></data></segment></body></omm>
<omm id="CCSDS_OMM_VERS" version="2.0">
<header><CREATION_DATE/><ORIGINATOR/></header><body><segment><metadata><OBJECT_NAME>ORBCOMM FM07</OBJECT_NAME><OBJECT_ID>1997-084H</OBJECT_ID><CENTER_NAME>EARTH</CENTER_NAME><REF_FRAME>TEME</REF_FRAME><TIME_SYSTEM>UTC</TIME_SYSTEM><MEAN_ELEMENT_THEORY>SGP4</MEAN_ELEMENT_THEORY></metadata><data><meanElements><EPOCH>2025-11-20T12:46:08.165280</EPOCH><MEAN_MOTION>14.46758462</MEAN_MOTION><ECCENTRICITY>.00053799</ECCENTRICITY><INCLINATION>45.0140</INCLINATION><RA_OF_ASC_NODE>337.3764</RA_OF_ASC_NODE><ARG_OF_PERICENTER>279.4247</ARG_OF_PERICENTER><MEAN_ANOMALY>80.5996</MEAN_ANOMALY></meanElements><tleParameters><EPHEMERIS_TYPE>0</EPHEMERIS_TYPE><CLASSIFICATION_TYPE>U</CLASSIFICATION_TYPE><NORAD_CAT_ID>25119</NORAD_CAT_ID><ELEMENT_SET_NO>999</ELEMENT_SET_NO><REV_AT_EPOCH>46415</REV_AT_EPOCH><BSTAR>.52895943E-3</BSTAR><MEAN_MOTION_DOT>.1788E-4</MEAN_MOTION_DOT><MEAN_MOTION_DDOT>0</MEAN_MOTION_DDOT></tleParameters></data></segment></body></omm>
<omm id="CCSDS_OMM_VERS" version="2.0">
<header><CREATION_DATE/><ORIGINATOR/></header><body><segment><metadata><OBJECT_NAME>ORBCOMM FM03</OBJECT_NAME><OBJECT_ID>1998-007B</OBJECT_ID><CENTER_NAME>EARTH</CENTER_NAME><REF_FRAME>TEME</REF_FRAME><TIME_SYSTEM>UTC</TIME_SYSTEM><MEAN_ELEMENT_THEORY>SGP4</MEAN_ELEMENT_THEORY></metadata><data><meanElements><EPOCH>2025-11-21T03:30:37.681344</EPOCH><MEAN_MOTION>14.34940581</MEAN_MOTION><ECCENTRICITY>.0045282</ECCENTRICITY><INCLINATION>107.9648</INCLINATION><RA_OF_ASC_NODE>98.1064</RA_OF_ASC_NODE><ARG_OF_PERICENTER>331.1995</ARG_OF_PERICENTER><MEAN_ANOMALY>28.6647</MEAN_ANOMALY></meanElements><tleParameters><EPHEMERIS_TYPE>0</EPHEMERIS_TYPE><CLASSIFICATION_TYPE>U</CLASSIFICATION_TYPE><NORAD_CAT_ID>25158</NORAD_CAT_ID><ELEMENT_SET_NO>999</ELEMENT_SET_NO><REV_AT_EPOCH>44655</REV_AT_EPOCH><BSTAR>.53038E-3</BSTAR><MEAN_MOTION_DOT>.1396E-4</MEAN_MOTION_DOT><MEAN_MOTION_DDOT>0</MEAN_MOTION_DDOT></tleParameters></data></segment></body></omm>
<omm id="CCSDS_OMM_VERS" version="2.0">
<header><CREATION_DATE/><ORIGINATOR/></header><body><segment><metadata><OBJECT_NAME>ORBCOMM FM04</OBJECT_NAME><OBJECT_ID>1998-007C</OBJECT_ID><CENTER_NAME>EARTH</CENTER_NAME><REF_FRAME>TEME</REF_FRAME><TIME_SYSTEM>UTC</TIME_SYSTEM><MEAN_ELEMENT_THEORY>SGP4</MEAN_ELEMENT_THEORY></metadata><data><meanElements><EPOCH>2025-11-21T02:29:16.950624</EPOCH><MEAN_MOTION>14.35185201</MEAN_MOTION><ECCENTRICITY>.0041186</ECCENTRICITY><INCLINATION>107.9640</INCLINATION><RA_OF_ASC_NODE>101.3459</RA_OF_ASC_NODE><ARG_OF_PERICENTER>328.3491</ARG_OF_PERICENTER><MEAN_ANOMALY>31.5174</MEAN_ANOMALY></meanElements><tleParameters><EPHEMERIS_TYPE>0</EPHEMERIS_TYPE><CLASSIFICATION_TYPE>U</CLASSIFICATION_TYPE><NORAD_CAT_ID>25159</NORAD_CAT_ID><ELEMENT_SET_NO>999</ELEMENT_SET_NO><REV_AT_EPOCH>44673</REV_AT_EPOCH><BSTAR>.48625E-3</BSTAR><MEAN_MOTION_DOT>.1273E-4</MEAN_MOTION_DOT><MEAN_MOTION_DDOT>0</MEAN_MOTION_DDOT></tleParameters></data></segment></body></omm>
<omm id="CCSDS_OMM_VERS" version="2.0">
<header><CREATION_DATE/><ORIGINATOR/></header><body><segment><metadata><OBJECT_NAME>ORBCOMM FM17</OBJECT_NAME><OBJECT_ID>1998-046A</OBJECT_ID><CENTER_NAME>EARTH</CENTER_NAME><REF_FRAME>TEME</REF_FRAME><TIME_SYSTEM>UTC</TIME_SYSTEM><MEAN_ELEMENT_THEORY>SGP4</MEAN_ELEMENT_THEORY></metadata><data><meanElements><EPOCH>2025-11-20T22:40:11.699904</EPOCH><MEAN_MOTION>14.35473180</MEAN_MOTION><ECCENTRICITY>.0003727</ECCENTRICITY><INCLINATION>44.9941</INCLINATION><RA_OF_ASC_NODE>237.6068</RA_OF_ASC_NODE><ARG_OF_PERICENTER>300.3952</ARG_OF_PERICENTER><MEAN_ANOMALY>59.6526</MEAN_ANOMALY></meanElements><tleParameters><EPHEMERIS_TYPE>0</EPHEMERIS_TYPE><CLASSIFICATION_TYPE>U</CLASSIFICATION_TYPE><NORAD_CAT_ID>25413</NORAD_CAT_ID><ELEMENT_SET_NO>999</ELEMENT_SET_NO><REV_AT_EPOCH>42569</REV_AT_EPOCH><BSTAR>.35908E-3</BSTAR><MEAN_MOTION_DOT>.9E-5</MEAN_MOTION_DOT><MEAN_MOTION_DDOT>0</MEAN_MOTION_DDOT></tleParameters></data></segment></body></omm>
<omm id="CCSDS_OMM_VERS" version="2.0">
<header><CREATION_DATE/><ORIGINATOR/></header><body><segment><metadata><OBJECT_NAME>ORBCOMM FM18</OBJECT_NAME><OBJECT_ID>1998-046B</OBJECT_ID><CENTER_NAME>EARTH</CENTER_NAME><REF_FRAME>TEME</REF_FRAME><TIME_SYSTEM>UTC</TIME_SYSTEM><MEAN_ELEMENT_THEORY>SGP4</MEAN_ELEMENT_THEORY></metadata><data><meanElements><EPOCH>2025-11-20T12:18:57.413664</EPOCH><MEAN_MOTION>14.39057010</MEAN_MOTION><ECCENTRICITY>.00042368</ECCENTRICITY><INCLINATION>44.9901</INCLINATION><RA_OF_ASC_NODE>152.7986</RA_OF_ASC_NODE><ARG_OF_PERICENTER>358.3356</ARG_OF_PERICENTER><MEAN_ANOMALY>1.7478</MEAN_ANOMALY></meanElements><tleParameters><EPHEMERIS_TYPE>0</EPHEMERIS_TYPE><CLASSIFICATION_TYPE>U</CLASSIFICATION_TYPE><NORAD_CAT_ID>25414</NORAD_CAT_ID><ELEMENT_SET_NO>999</ELEMENT_SET_NO><REV_AT_EPOCH>42676</REV_AT_EPOCH><BSTAR>.40430224E-3</BSTAR><MEAN_MOTION_DOT>.1118E-4</MEAN_MOTION_DOT><MEAN_MOTION_DDOT>0</MEAN_MOTION_DDOT></tleParameters></data></segment></body></omm>
<omm id="CCSDS_OMM_VERS" version="2.0">
<header><CREATION_DATE/><ORIGINATOR/></header><body><segment><metadata><OBJECT_NAME>ORBCOMM FM19</OBJECT_NAME><OBJECT_ID>1998-046C</OBJECT_ID><CENTER_NAME>EARTH</CENTER_NAME><REF_FRAME>TEME</REF_FRAME><TIME_SYSTEM>UTC</TIME_SYSTEM><MEAN_ELEMENT_THEORY>SGP4</MEAN_ELEMENT_THEORY></metadata><data><meanElements><EPOCH>2025-11-20T22:17:16.952352</EPOCH><MEAN_MOTION>14.38877807</MEAN_MOTION><ECCENTRICITY>.0002992</ECCENTRICITY><INCLINATION>44.9925</INCLINATION><RA_OF_ASC_NODE>153.0657</RA_OF_ASC_NODE><ARG_OF_PERICENTER>357.8553</ARG_OF_PERICENTER><MEAN_ANOMALY>166.5584</MEAN_ANOMALY></meanElements><tleParameters><EPHEMERIS_TYPE>0</EPHEMERIS_TYPE><CLASSIFICATION_TYPE>U</CLASSIFICATION_TYPE><NORAD_CAT_ID>25415</NORAD_CAT_ID><ELEMENT_SET_NO>999</ELEMENT_SET_NO><REV_AT_EPOCH>42677</REV_AT_EPOCH><BSTAR>.41417E-3</BSTAR><MEAN_MOTION_DOT>.1144E-4</MEAN_MOTION_DOT><MEAN_MOTION_DDOT>0</MEAN_MOTION_DDOT></tleParameters></data></segment></body></omm>

</ndm>
