ORBCOMM FM05            
1 25117U 97084F   25325.02661156  .00001574  00000+0  47201-3 0  9991
2 25117  45.0153 334.6933 0004537 283.1926  76.8419 14.46592723463312
ORBCOMM FM06            
1 25118U 97084G   25324.41030506  .00001870  00000+0  55165-3 0  9990
2 25118  45.0144 337.2088 0003484 279.5255 231.2126 14.46744664464144
ORBCOMM FM07            
1 25119U 97084H   25324.53203895  .00001788  00000+0  52896-3 0  9993
2 25119  45.0140 337.3764 0005379 279.4247  80.5996 14.46758462464150
ORBCOMM FM03            
1 25158U 98007B   25325.14626946  .00001396  00000+0  53038-3 0  9990
2 25158 107.9648  98.1064 0045282 331.1995  28.6647 14.34940581446554
ORBCOMM FM04            
1 25159U 98007C   25325.10366841  .00001273  00000+0  48625-3 0  9992
2 25159 107.9640 101.3459 0041186 328.3491  31.5174 14.35185201446739
ORBCOMM FM17            
1 25413U 98046A   25324.94457986  .00000900  00000+0  35908-3 0  9996
2 25413  44.9941 237.6068 0003727 300.3952  59.6526 14.35473180425696
ORBCOMM FM18            
1 25414U 98046B   25324.51316451  .00001118  00000+0  40430-3 0  9999
2 25414  44.9901 152.7986 0004236 358.3356   1.7478 14.39057010426763
ORBCOMM FM19            
1 25415U 98046C   25324.92866843  .00001144  00000+0  41417-3 0  9995
2 25415  44.9925 153.0657 0002992 357.8553 166.5584 14.38877807426771
